{"type": "FeatureCollection", "name": "p533411_forest_grid_53341135", "crs": {"type": "name", "properties": {"name": "urn:ogc:def:crs:OGC:1.3:CRS84"}}, "features": [{"type": "Feature", "properties": {"MESH2_C": "533411", "grid_code": "53341135", "grid_area": 1048817.2541308552, "grid_perimeter": 4117.995689468091, "area": 5413.025409727226, "perimeter": 346.8582885602937, "connect": 0.26348169714557257, "connect_rev": 0.0026492044049862625}, "geometry": {"type": "Polygon", "coordinates": [[[134.1938464, 35.44492103], [134.19414775, 35.44502754], [134.19430423, 35.44510207], [134.19455463, 35.44534655], [134.19469178, 35.44551115], [134.19474255, 35.44560843], [134.1947727, 35.44563176], [134.1948008, 35.44563718], [134.19484324, 35.44562902], [134.19495138, 35.44556833], [134.19506197, 35.4455256], [134.19521661, 35.44546395], [134.19502879, 35.44513175], [134.19495208, 35.4450365], [134.19467901, 35.44484974], [134.19458299, 35.44479488], [134.19381374, 35.44479489], [134.19380324, 35.44480705], [134.19378962, 35.44485584], [134.19380236, 35.44488848], [134.1938464, 35.44492103]]]}}, {"type": "Feature", "properties": {"MESH2_C": "533411", "grid_code": "53341135", "grid_area": 1048817.2541308552, "grid_perimeter": 4117.995689468091, "area": 15863.255548834655, "perimeter": 949.7821720042025, "connect": 0.26348169714557257, "connect_rev": 0.007763681729976077}, "geometry": {"type": "Polygon", "coordinates": [[[134.19191636, 35.44511624], [134.19204843, 35.44541779], [134.19215209, 35.44559928], [134.19223703, 35.44569901], [134.19242935, 35.44583687], [134.19273222, 35.44611607], [134.19306758, 35.44651159], [134.1931658, 35.44645258], [134.19345603, 35.44631148], [134.19359328, 35.44643282], [134.19372803, 35.44658932], [134.19376496, 35.4466164], [134.19381838, 35.44663214], [134.1938882, 35.44661926], [134.19430536, 35.44645352], [134.19423835, 35.44634223], [134.1941946, 35.44629865], [134.19412677, 35.44625418], [134.19393311, 35.44608378], [134.19353722, 35.44585366], [134.19325272, 35.44609701], [134.19288803, 35.44580992], [134.19267271, 35.44559279], [134.19253754, 35.44542182], [134.19239817, 35.44519312], [134.19238328, 35.4451277], [134.19240137, 35.44506373], [134.19245186, 35.44500744], [134.19253487, 35.44495693], [134.19259512, 35.44494655], [134.19265471, 35.44495875], [134.19271828, 35.44500074], [134.19285595, 35.44512929], [134.19306181, 35.44528138], [134.19313455, 35.44536219], [134.19325648, 35.44524839], [134.19342048, 35.44493954], [134.19343434, 35.4448505], [134.19342243, 35.44479489], [134.19182288, 35.44479487], [134.19191636, 35.44511624]]]}}, {"type": "Feature", "properties": {"MESH2_C": "533411", "grid_code": "53341135", "grid_area": 1048817.2541308552, "grid_perimeter": 4117.995689468091, "area": 2193.898115246382, "perimeter": 184.20965242749944, "connect": 0.26348169714557257, "connect_rev": 0.001073722015152088}, "geometry": {"type": "Polygon", "coordinates": [[[134.19090649, 35.44491141], [134.19093726, 35.44498754], [134.19101, 35.44506547], [134.19113512, 35.44513517], [134.19130132, 35.44519023], [134.19143778, 35.4452069], [134.19152816, 35.44518477], [134.19156068, 35.4451215], [134.1915211, 35.44479487], [134.19090032, 35.44479485], [134.19090649, 35.44491141]]]}}, {"type": "Feature", "properties": {"MESH2_C": "533411", "grid_code": "53341135", "grid_area": 1048817.2541308552, "grid_perimeter": 4117.995689468091, "area": 97125.14945931321, "perimeter": 1608.9750632189896, "connect": 0.26348169714557257, "connect_rev": 0.04753430000904573}, "geometry": {"type": "Polygon", "coordinates": [[[134.1871835, 35.44484024], [134.18720111, 35.44505079], [134.18724777, 35.44516522], [134.18730716, 35.445261], [134.18760951, 35.44562463], [134.1878509, 35.44583417], [134.18803248, 35.44603111], [134.18828672, 35.44648088], [134.18844231, 35.44667528], [134.18856679, 35.44680005], [134.18880166, 35.44699395], [134.18916356, 35.44717509], [134.18945275, 35.44723533], [134.18951804, 35.44723157], [134.18958363, 35.44721441], [134.18964879, 35.44722325], [134.18985242, 35.44723815], [134.18990615, 35.44726505], [134.19002555, 35.44736891], [134.19017282, 35.44746467], [134.1903782, 35.44755328], [134.19061653, 35.44758567], [134.19077898, 35.44758852], [134.19082519, 35.44760079], [134.19086994, 35.44762579], [134.19090882, 35.44759575], [134.19096726, 35.44756906], [134.19138744, 35.44747277], [134.19144741, 35.44748893], [134.19148178, 35.4475151], [134.19152642, 35.44759793], [134.19169464, 35.44772794], [134.19180992, 35.44781282], [134.19203734, 35.44786631], [134.19223341, 35.44793724], [134.19260583, 35.44814438], [134.192783, 35.44822318], [134.19293715, 35.44831897], [134.19308238, 35.44846468], [134.19328463, 35.44824544], [134.193305, 35.44813654], [134.19330384, 35.44791953], [134.19327997, 35.44784104], [134.19319702, 35.44772454], [134.19311317, 35.44763677], [134.1929626, 35.44751825], [134.19266841, 35.44774479], [134.19258525, 35.44778532], [134.19254418, 35.44778137], [134.19250751, 35.44775989], [134.19233202, 35.44758384], [134.19223259, 35.44745672], [134.19220538, 35.44740055], [134.19221418, 35.4473568], [134.19227785, 35.44727754], [134.19229712, 35.44721628], [134.19228678, 35.44716598], [134.19222501, 35.44706816], [134.19221071, 35.44701948], [134.19221984, 35.44698281], [134.19224692, 35.44694867], [134.19236885, 35.44686864], [134.19218814, 35.44659561], [134.19201646, 35.44642176], [134.19184987, 35.44630098], [134.19151562, 35.44616038], [134.19125391, 35.44598561], [134.19026406, 35.44501964], [134.18999377, 35.44482219], [134.18995127, 35.44479483], [134.18718299, 35.44479471], [134.1871835, 35.44484024]]]}}, {"type": "Feature", "properties": {"MESH2_C": "533411", "grid_code": "53341135", "grid_area": 1048817.2541308552, "grid_perimeter": 4117.995689468091, "area": 7678.9782999914605, "perimeter": 391.89320390466384, "connect": 0.26348169714557257, "connect_rev": 0.003758190955759144}, "geometry": {"type": "Polygon", "coordinates": [[[134.18481079, 35.44900426], [134.18501721, 35.44891721], [134.18511008, 35.44889026], [134.18548466, 35.44886028], [134.18558148, 35.44883938], [134.18563897, 35.44880986], [134.18570889, 35.44872995], [134.18572667, 35.44866413], [134.18571732, 35.44859788], [134.18567843, 35.44850879], [134.18562907, 35.44843823], [134.18554149, 35.44835078], [134.18514811, 35.44804089], [134.18497285, 35.44780412], [134.18488297, 35.44773757], [134.18476145, 35.4476842], [134.1847614, 35.4490032], [134.18481079, 35.44900426]]]}}, {"type": "Feature", "properties": {"MESH2_C": "533411", "grid_code": "53341135", "grid_area": 1048817.2541308552, "grid_perimeter": 4117.995689468091, "area": 233370.4161358295, "perimeter": 2394.360227284499, "connect": 0.26348169714557257, "connect_rev": 0.114214489610473}, "geometry": {"type": "Polygon", "coordinates": [[[134.1848874, 35.44543221], [134.18492698, 35.44552013], [134.18494172, 35.44561041], [134.18491053, 35.4457557], [134.18492084, 35.44584566], [134.18515211, 35.44624638], [134.18521521, 35.44630631], [134.18508793, 35.44653134], [134.18487042, 35.44672869], [134.18490896, 35.44699065], [134.1849893, 35.44717251], [134.18505529, 35.44725128], [134.18547456, 35.44762352], [134.18558439, 35.44774564], [134.18563637, 35.44782925], [134.18573779, 35.44805493], [134.18594576, 35.44836052], [134.18606399, 35.4485805], [134.18611566, 35.4486511], [134.18619258, 35.44872681], [134.18650462, 35.4488971], [134.18668881, 35.44898952], [134.18676598, 35.44904152], [134.18682358, 35.44913429], [134.18687467, 35.44933406], [134.1869128, 35.44960313], [134.18693316, 35.44965023], [134.18721878, 35.44985385], [134.18727726, 35.44989111], [134.18753726, 35.45000622], [134.18779896, 35.45012039], [134.18805364, 35.45022549], [134.18856861, 35.45044289], [134.18879825, 35.45056215], [134.18899048, 35.45067538], [134.18936552, 35.45092093], [134.18975752, 35.45108695], [134.18984545, 35.45108131], [134.18998276, 35.45107319], [134.19065021, 35.45092553], [134.19118141, 35.45085901], [134.1912219, 35.45084028], [134.19127115, 35.45079051], [134.19135388, 35.45064301], [134.19143143, 35.45055417], [134.19155351, 35.45047552], [134.19169344, 35.45041575], [134.19177969, 35.45039933], [134.19193133, 35.45040938], [134.19201053, 35.45040013], [134.19208331, 35.45037065], [134.19216639, 35.45030801], [134.19225905, 35.4501942], [134.1923512, 35.45002312], [134.19243764, 35.44974045], [134.19233662, 35.44973155], [134.19216947, 35.44967525], [134.19195473, 35.44955715], [134.19187169, 35.44942406], [134.19186381, 35.4493564], [134.19188124, 35.44930103], [134.19190463, 35.44926044], [134.19195034, 35.44921886], [134.19211896, 35.44912826], [134.19224447, 35.44904], [134.19233789, 35.44892337], [134.19230451, 35.44884243], [134.19220553, 35.44871611], [134.1921262, 35.44866505], [134.19158141, 35.4484854], [134.19138766, 35.4483815], [134.19129858, 35.44833018], [134.1912757, 35.44815333], [134.19123102, 35.44815373], [134.19114298, 35.44811322], [134.19100119, 35.44801202], [134.1908502, 35.44788634], [134.19074675, 35.44795353], [134.19069752, 35.44795037], [134.19061268, 35.44793874], [134.19037766, 35.4479707], [134.19018373, 35.44796047], [134.1900517, 35.44792359], [134.18991456, 35.44787173], [134.18965167, 35.44779921], [134.18913199, 35.44756836], [134.1889161, 35.44774228], [134.18869163, 35.44790277], [134.18860246, 35.44792353], [134.1885557, 35.44791233], [134.18850741, 35.44789306], [134.18848376, 35.44782368], [134.18847686, 35.44775425], [134.18849198, 35.44770022], [134.18852721, 35.44764912], [134.1885815, 35.44758974], [134.1887758, 35.44747702], [134.18884279, 35.44740921], [134.18875403, 35.44734703], [134.18856227, 35.44711914], [134.18833189, 35.44693227], [134.18828255, 35.44689461], [134.18823981, 35.44683772], [134.18807417, 35.44656117], [134.1880018, 35.44641244], [134.1879047, 35.44627189], [134.18785874, 35.44615741], [134.18762644, 35.44593284], [134.18719157, 35.44546731], [134.18706656, 35.44537583], [134.18694694, 35.44526309], [134.18659748, 35.44503475], [134.1864925, 35.44495924], [134.18629893, 35.44485238], [134.18605311, 35.44480004], [134.18604735, 35.44479464], [134.18476155, 35.44479455], [134.18476153, 35.44521969], [134.1848874, 35.44543221]]]}}, {"type": "Feature", "properties": {"MESH2_C": "533411", "grid_code": "53341135", "grid_area": 1048817.2541308552, "grid_perimeter": 4117.995689468091, "area": 3976.675099292479, "perimeter": 250.66850683162045, "connect": 0.26348169714557257, "connect_rev": 0.0019462360496799698}, "geometry": {"type": "Polygon", "coordinates": [[[134.19433218, 35.44760275], [134.19437544, 35.44758912], [134.19466278, 35.44744923], [134.19471656, 35.4474147], [134.19476498, 35.4473694], [134.19460374, 35.44711458], [134.19452071, 35.44686316], [134.19449455, 35.44680984], [134.19434174, 35.44690523], [134.19413744, 35.44699937], [134.19394368, 35.44712674], [134.19386995, 35.44716612], [134.19391388, 35.4472419], [134.19418501, 35.44754931], [134.19423135, 35.44758735], [134.19427287, 35.44760263], [134.19433218, 35.44760275]]]}}, {"type": "Feature", "properties": {"MESH2_C": "533411", "grid_code": "53341135", "grid_area": 1048817.2541308552, "grid_perimeter": 4117.995689468091, "area": 7400.275612000842, "perimeter": 334.9041707963907, "connect": 0.26348169714557257, "connect_rev": 0.0036217902680070677}, "geometry": {"type": "Polygon", "coordinates": [[[134.19547458, 35.44676456], [134.19560575, 35.44679446], [134.19567101, 35.44679106], [134.19571116, 35.44677569], [134.19574214, 35.44674934], [134.19581204, 35.44663042], [134.19600262, 35.44652192], [134.19606892, 35.44647398], [134.19602907, 35.44639717], [134.19587157, 35.44620191], [134.19550788, 35.44580607], [134.19537042, 35.44588995], [134.19510121, 35.44595179], [134.1949676, 35.44600761], [134.1948964, 35.44604988], [134.19475823, 35.4461926], [134.19490509, 35.44635465], [134.19521931, 35.44662913], [134.19532524, 35.44670064], [134.19547458, 35.44676456]]]}}, {"type": "Feature", "properties": {"MESH2_C": "533411", "grid_code": "53341135", "grid_area": 1048817.2541308552, "grid_perimeter": 4117.995689468091, "area": 45077.08510047622, "perimeter": 1206.8132766419997, "connect": 0.26348169714557257, "connect_rev": 0.02206130645489432}, "geometry": {"type": "Polygon", "coordinates": [[[134.19686491, 35.45288959], [134.19673982, 35.45259956], [134.19657841, 35.45229274], [134.19636197, 35.45198885], [134.19627762, 35.45192028], [134.19617016, 35.45187034], [134.19586002, 35.45201631], [134.19579796, 35.45206194], [134.19570179, 35.45218876], [134.1956132, 35.4522154], [134.19553232, 35.45219873], [134.19532766, 35.45211362], [134.1952028, 35.45194397], [134.19514056, 35.45190029], [134.19508035, 35.45187514], [134.19502854, 35.45196152], [134.19500622, 35.45208506], [134.19502176, 35.45219648], [134.19508623, 35.45236464], [134.19508299, 35.45244402], [134.19505347, 35.4524928], [134.19500271, 35.45252981], [134.1949422, 35.4525491], [134.19486308, 35.45254488], [134.19472353, 35.4525014], [134.1946536, 35.45246506], [134.19448819, 35.45233873], [134.19406856, 35.45208631], [134.19394437, 35.45199103], [134.19392789, 35.45194469], [134.19395854, 35.45187062], [134.19425551, 35.45154681], [134.1942493, 35.45141003], [134.19354877, 35.45152145], [134.19338363, 35.4515523], [134.19325527, 35.45159062], [134.19303883, 35.4516915], [134.19297998, 35.45173563], [134.19285199, 35.45194022], [134.1927505, 35.45218804], [134.19284954, 35.45244297], [134.19289141, 35.45256566], [134.19289791, 35.45266334], [134.19286743, 35.45283068], [134.19286938, 35.4529535], [134.19289686, 35.4530137], [134.1929415, 35.45312725], [134.19695596, 35.45312722], [134.19686491, 35.45288959]]]}}, {"type": "Feature", "properties": {"MESH2_C": "533411", "grid_code": "53341135", "grid_area": 1048817.2541308552, "grid_perimeter": 4117.995689468091, "area": 11760.926971944631, "perimeter": 423.8412326396423, "connect": 0.26348169714557257, "connect_rev": 0.005755949248789418}, "geometry": {"type": "Polygon", "coordinates": [[[134.19203048, 35.45195393], [134.19135921, 35.45215157], [134.19128633, 35.45218459], [134.19122421, 35.45223451], [134.19116647, 35.45232233], [134.19113249, 35.45247106], [134.19117635, 35.45280245], [134.19124156, 35.45290968], [134.19140015, 35.4530551], [134.19148086, 35.45309849], [134.19155228, 35.45312724], [134.19239821, 35.45312725], [134.19238218, 35.45307601], [134.1923617, 35.45297906], [134.19227286, 35.45277789], [134.19225082, 35.45265456], [134.19226865, 35.45250255], [134.19231066, 35.45234207], [134.19238512, 35.45218174], [134.19231294, 35.45214429], [134.19223051, 35.45204639], [134.19216318, 35.45198995], [134.19210561, 35.45196365], [134.19203048, 35.45195393]]]}}, {"type": "Feature", "properties": {"MESH2_C": "533411", "grid_code": "53341135", "grid_area": 1048817.2541308552, "grid_perimeter": 4117.995689468091, "area": 108503.1219501464, "perimeter": 1378.914118189967, "connect": 0.26348169714557257, "connect_rev": 0.05310282639880948}, "geometry": {"type": "Polygon", "coordinates": [[[134.18846665, 35.45303376], [134.18853778, 35.45295559], [134.18855829, 35.45289397], [134.18843502, 35.45176914], [134.1884087, 35.45170788], [134.18837977, 35.45167915], [134.18832031, 35.45165565], [134.18826626, 35.45164839], [134.18828709, 35.45159275], [134.18830627, 35.45141612], [134.18810329, 35.45138453], [134.18800635, 35.45135686], [134.18777233, 35.45119136], [134.18752077, 35.45090958], [134.18739778, 35.45083436], [134.18728319, 35.45080539], [134.18719133, 35.45076435], [134.18687498, 35.45059343], [134.18682327, 35.45054737], [134.1867706, 35.45049587], [134.18651976, 35.45004339], [134.18646862, 35.4496978], [134.18644916, 35.44965398], [134.18624217, 35.44949388], [134.18591203, 35.44930703], [134.1858173, 35.44928246], [134.18570217, 35.44927256], [134.18540223, 35.44933085], [134.18526678, 35.44937786], [134.18480588, 35.44951553], [134.18476139, 35.44953823], [134.18476126, 35.45312692], [134.18831485, 35.45312714], [134.18846665, 35.45303376]]]}}]}